[{"OBJECT_NAME":"STARLINK-5337","OBJECT_ID":"2023-010R","EPOCH":"2026-03-09T23:31:30.169056","MEAN_MOTION":14.98429662,"ECCENTRICITY":0.00030856,"INCLINATION":70.0002,"RA_OF_ASC_NODE":43.5513,"ARG_OF_PERICENTER":267.612,"MEAN_ANOMALY":92.4686,"EPHEMERIS_TYPE":0,"CLASSIFICATION_TYPE":"U","NORAD_CAT_ID":55284,"ELEMENT_SET_NO":999,"REV_AT_EPOCH":17281,"BSTAR":0.0039719726,"MEAN_MOTION_DOT":0.00047747,"MEAN_MOTION_DDOT":0},{"OBJECT_NAME":"CZ-6A DEB","OBJECT_ID":"2022-151LD","EPOCH":"2026-03-09T16:54:45.205632","MEAN_MOTION":14.92245273,"ECCENTRICITY":0.00472182,"INCLINATION":98.6465,"RA_OF_ASC_NODE":142.156,"ARG_OF_PERICENTER":203.7976,"MEAN_ANOMALY":156.1058,"EPHEMERIS_TYPE":0,"CLASSIFICATION_TYPE":"U","NORAD_CAT_ID":54553,"ELEMENT_SET_NO":999,"REV_AT_EPOCH":10459,"BSTAR":0.004690798,"MEAN_MOTION_DOT":0.00049128,"MEAN_MOTION_DDOT":0}]
